{"type": "FeatureCollection", "features": [ {"type": "Feature", "properties": {"norad_id": 54234, "name": "NOAA 21 (JPSS-2)", "group": "weather", "lat": 69.53132760404469, "lon": -99.8305196235242, "alt_km": 818.9196489960123, "timestamp": "2025-12-14T05:42:18.099544+00:00", "meta": {"OBJECT_NAME": "NOAA 21 (JPSS-2)", "OBJECT_ID": "2022-150A", "EPOCH": "2025-12-13T15:50:12.014592", "MEAN_MOTION": 14.19524674, "ECCENTRICITY": 0.00021905, "INCLINATION": 98.7462, "RA_OF_ASC_NODE": 283.9566, "ARG_OF_PERICENTER": 36.4289, "MEAN_ANOMALY": 323.7035, "EPHEMERIS_TYPE": 0, "CLASSIFICATION_TYPE": "U", "NORAD_CAT_ID": 54234, "ELEMENT_SET_NO": 999, "REV_AT_EPOCH": 16022, "BSTAR": 9.6958678e-05, "MEAN_MOTION_DOT": 1.6e-06, "MEAN_MOTION_DDOT": 0}, "tle": {"line1": "1 54234U 22150A   25347.65986128  .00000160  00000+0  96959-4 0  9992", "line2": "2 54234  98.7462 283.9566 0002190  36.4289 323.7035 14.19524674160226"}}, "geometry": {"type": "Point", "coordinates": [-99.8305196235242, 69.53132760404469]}}, {"type": "Feature", "properties": {"norad_id": 54743, "name": "METEOSAT-12 (MTG-I1)", "group": "weather", "lat": 0.39270363196439045, "lon": 168.4405614590399, "alt_km": 35787.10888634522, "timestamp": "2025-12-14T05:42:18.099559+00:00", "meta": {"OBJECT_NAME": "METEOSAT-12 (MTG-I1)", "OBJECT_ID": "2022-170C", "EPOCH": "2025-12-13T15:09:40.925952", "MEAN_MOTION": 1.00269264, "ECCENTRICITY": 0.00016797, "INCLINATION": 0.6877, "RA_OF_ASC_NODE": 23.7583, "ARG_OF_PERICENTER": 237.9177, "MEAN_ANOMALY": 48.0433, "EPHEMERIS_TYPE": 0, "CLASSIFICATION_TYPE": "U", "NORAD_CAT_ID": 54743, "ELEMENT_SET_NO": 999, "REV_AT_EPOCH": 1111, "BSTAR": 0, "MEAN_MOTION_DOT": 8e-08, "MEAN_MOTION_DDOT": 0}, "tle": {"line1": "1 54743U 22170C   25347.63172368  .00000008  00000+0  00000+0 0  9998", "line2": "2 54743   0.6877  23.7583 0001679 237.9177  48.0433  1.00269264 11116"}}, "geometry": {"type": "Point", "coordinates": [168.4405614590399, 0.39270363196439045]}}, {"type": "Feature", "properties": {"norad_id": 55973, "name": "TIANMU-1 03", "group": "weather", "lat": -67.93361504044763, "lon": 169.92392231129278, "alt_km": 452.24029798150787, "timestamp": "2025-12-14T05:42:18.099572+00:00", "meta": {"OBJECT_NAME": "TIANMU-1 03", "OBJECT_ID": "2023-039A", "EPOCH": "2025-12-13T15:58:43.135392", "MEAN_MOTION": 15.4095928, "ECCENTRICITY": 0.00043497, "INCLINATION": 97.5105, "RA_OF_ASC_NODE": 150.3428, "ARG_OF_PERICENTER": 58.7577, "MEAN_ANOMALY": 301.4095, "EPHEMERIS_TYPE": 0, "CLASSIFICATION_TYPE": "U", "NORAD_CAT_ID": 55973, "ELEMENT_SET_NO": 999, "REV_AT_EPOCH": 15220, "BSTAR": 0.00041049314, "MEAN_MOTION_DOT": 0.00016837, "MEAN_MOTION_DDOT": 0}, "tle": {"line1": "1 55973U 23039A   25347.66577703  .00016837  00000+0  41049-3 0  9993", "line2": "2 55973  97.5105 150.3428 0004349  58.7577 301.4095 15.40959280152205"}}, "geometry": {"type": "Point", "coordinates": [169.92392231129278, -67.93361504044763]}}, {"type": "Feature", "properties": {"norad_id": 55974, "name": "TIANMU-1 04", "group": "weather", "lat": 46.07911577718347, "lon": 142.25412990577766, "alt_km": 434.87733698385637, "timestamp": "2025-12-14T05:42:18.099582+00:00", "meta": {"OBJECT_NAME": "TIANMU-1 04", "OBJECT_ID": "2023-039B", "EPOCH": "2025-12-13T15:28:49.949184", "MEAN_MOTION": 15.41296979, "ECCENTRICITY": 0.00049992, "INCLINATION": 97.5037, "RA_OF_ASC_NODE": 149.5122, "ARG_OF_PERICENTER": 53.4263, "MEAN_ANOMALY": 306.7442, "EPHEMERIS_TYPE": 0, "CLASSIFICATION_TYPE": "U", "NORAD_CAT_ID": 55974, "ELEMENT_SET_NO": 999, "REV_AT_EPOCH": 15220, "BSTAR": 0.00039780714, "MEAN_MOTION_DOT": 0.00016499, "MEAN_MOTION_DDOT": 0}, "tle": {"line1": "1 55974U 23039B   25347.64502256  .00016499  00000+0  39781-3 0  9997", "line2": "2 55974  97.5037 149.5122 0004999  53.4263 306.7442 15.41296979152200"}}, "geometry": {"type": "Point", "coordinates": [142.25412990577766, 46.07911577718347]}}, {"type": "Feature", "properties": {"norad_id": 55975, "name": "TIANMU-1 05", "group": "weather", "lat": 74.59160454862366, "lon": 122.02190545847705, "alt_km": 433.30851753710976, "timestamp": "2025-12-14T05:42:18.099594+00:00", "meta": {"OBJECT_NAME": "TIANMU-1 05", "OBJECT_ID": "2023-039C", "EPOCH": "2025-12-13T15:20:52.089792", "MEAN_MOTION": 15.40916323, "ECCENTRICITY": 0.00043194, "INCLINATION": 97.5083, "RA_OF_ASC_NODE": 149.9989, "ARG_OF_PERICENTER": 75.7737, "MEAN_ANOMALY": 284.3988, "EPHEMERIS_TYPE": 0, "CLASSIFICATION_TYPE": "U", "NORAD_CAT_ID": 55975, "ELEMENT_SET_NO": 999, "REV_AT_EPOCH": 15218, "BSTAR": 0.00040141403, "MEAN_MOTION_DOT": 0.00016438, "MEAN_MOTION_DDOT": 0}, "tle": {"line1": "1 55975U 23039C   25347.63949178  .00016438  00000+0  40141-3 0  9990", "line2": "2 55975  97.5083 149.9989 0004319  75.7737 284.3988 15.40916323152180"}}, "geometry": {"type": "Point", "coordinates": [122.02190545847705, 74.59160454862366]}}, {"type": "Feature", "properties": {"norad_id": 55976, "name": "TIANMU-1 06", "group": "weather", "lat": 34.437982715426045, "lon": 145.89002249388923, "alt_km": 437.30588799700126, "timestamp": "2025-12-14T05:42:18.099607+00:00", "meta": {"OBJECT_NAME": "TIANMU-1 06", "OBJECT_ID": "2023-039D", "EPOCH": "2025-12-13T17:05:24.339264", "MEAN_MOTION": 15.41351514, "ECCENTRICITY": 0.00046087, "INCLINATION": 97.5096, "RA_OF_ASC_NODE": 150.5393, "ARG_OF_PERICENTER": 70.4817, "MEAN_ANOMALY": 289.6927, "EPHEMERIS_TYPE": 0, "CLASSIFICATION_TYPE": "U", "NORAD_CAT_ID": 55976, "ELEMENT_SET_NO": 999, "REV_AT_EPOCH": 15221, "BSTAR": 0.00040166866, "MEAN_MOTION_DOT": 0.00016689, "MEAN_MOTION_DDOT": 0}, "tle": {"line1": "1 55976U 23039D   25347.71208726  .00016689  00000+0  40167-3 0  9993", "line2": "2 55976  97.5096 150.5393 0004608  70.4817 289.6927 15.41351514152215"}}, "geometry": {"type": "Point", "coordinates": [145.89002249388923, 34.437982715426045]}}, {"type": "Feature", "properties": {"norad_id": 56232, "name": "FENGYUN 3G", "group": "weather", "lat": -9.606396448393488, "lon": 47.89523961658678, "alt_km": 402.4493503325875, "timestamp": "2025-12-14T05:42:18.099618+00:00", "meta": {"OBJECT_NAME": "FENGYUN 3G", "OBJECT_ID": "2023-055A", "EPOCH": "2025-12-13T16:31:58.068192", "MEAN_MOTION": 15.53721399, "ECCENTRICITY": 0.00093376, "INCLINATION": 49.993, "RA_OF_ASC_NODE": 222.5568, "ARG_OF_PERICENTER": 152.7146, "MEAN_ANOMALY": 207.4314, "EPHEMERIS_TYPE": 0, "CLASSIFICATION_TYPE": "U", "NORAD_CAT_ID": 56232, "ELEMENT_SET_NO": 999, "REV_AT_EPOCH": 15117, "BSTAR": 0.00053062346, "MEAN_MOTION_DOT": 0.00034392, "MEAN_MOTION_DDOT": 0}, "tle": {"line1": "1 56232U 23055A   25347.68886653  .00034392  00000+0  53062-3 0  9993", "line2": "2 56232  49.9930 222.5568 0009337 152.7146 207.4314 15.53721399151173"}}, "geometry": {"type": "Point", "coordinates": [47.89523961658678, -9.606396448393488]}}, {"type": "Feature", "properties": {"norad_id": 57166, "name": "METEOR-M2 3", "group": "weather", "lat": 2.102547601661049, "lon": 41.431087464655064, "alt_km": 811.6429745446076, "timestamp": "2025-12-14T05:42:18.099631+00:00", "meta": {"OBJECT_NAME": "METEOR-M2 3", "OBJECT_ID": "2023-091A", "EPOCH": "2025-12-13T16:12:16.338240", "MEAN_MOTION": 14.24026234, "ECCENTRICITY": 0.00038548, "INCLINATION": 98.6377, "RA_OF_ASC_NODE": 41.1982, "ARG_OF_PERICENTER": 6.3835, "MEAN_ANOMALY": 353.7393, "EPHEMERIS_TYPE": 0, "CLASSIFICATION_TYPE": "U", "NORAD_CAT_ID": 57166, "ELEMENT_SET_NO": 999, "REV_AT_EPOCH": 12811, "BSTAR": 3.113869e-05, "MEAN_MOTION_DOT": 2.8e-07, "MEAN_MOTION_DDOT": 0}, "tle": {"line1": "1 57166U 23091A   25347.67518910  .00000028  00000+0  31139-4 0  9998", "line2": "2 57166  98.6377  41.1982 0003854   6.3835 353.7393 14.24026234128111"}}, "geometry": {"type": "Point", "coordinates": [41.431087464655064, 2.102547601661049]}}, {"type": "Feature", "properties": {"norad_id": 57399, "name": "TIANMU-1 07", "group": "weather", "lat": 29.069087735395147, "lon": 33.97485008663863, "alt_km": 477.64457198292257, "timestamp": "2025-12-14T05:42:18.099642+00:00", "meta": {"OBJECT_NAME": "TIANMU-1 07", "OBJECT_ID": "2023-101A", "EPOCH": "2025-12-13T15:25:57.991584", "MEAN_MOTION": 15.28089589, "ECCENTRICITY": 0.00055593, "INCLINATION": 97.2882, "RA_OF_ASC_NODE": 37.4729, "ARG_OF_PERICENTER": 79.3914, "MEAN_ANOMALY": 280.7952, "EPHEMERIS_TYPE": 0, "CLASSIFICATION_TYPE": "U", "NORAD_CAT_ID": 57399, "ELEMENT_SET_NO": 999, "REV_AT_EPOCH": 13329, "BSTAR": 0.00032064786, "MEAN_MOTION_DOT": 8.715e-05, "MEAN_MOTION_DDOT": 0}, "tle": {"line1": "1 57399U 23101A   25347.64303231  .00008715  00000+0  32065-3 0  9992", "line2": "2 57399  97.2882  37.4729 0005559  79.3914 280.7952 15.28089589133296"}}, "geometry": {"type": "Point", "coordinates": [33.97485008663863, 29.069087735395147]}}, {"type": "Feature", "properties": {"norad_id": 57400, "name": "TIANMU-1 08", "group": "weather", "lat": -31.02089850556341, "lon": -146.56099847060642, "alt_km": 491.0703056326429, "timestamp": "2025-12-14T05:42:18.099652+00:00", "meta": {"OBJECT_NAME": "TIANMU-1 08", "OBJECT_ID": "2023-101B", "EPOCH": "2025-12-13T16:12:40.845600", "MEAN_MOTION": 15.28074565, "ECCENTRICITY": 0.00075128, "INCLINATION": 97.287, "RA_OF_ASC_NODE": 37.3025, "ARG_OF_PERICENTER": 81.5703, "MEAN_ANOMALY": 278.6388, "EPHEMERIS_TYPE": 0, "CLASSIFICATION_TYPE": "U", "NORAD_CAT_ID": 57400, "ELEMENT_SET_NO": 999, "REV_AT_EPOCH": 13329, "BSTAR": 0.00032075543, "MEAN_MOTION_DOT": 8.717e-05, "MEAN_MOTION_DDOT": 0}, "tle": {"line1": "1 57400U 23101B   25347.67547275  .00008717  00000+0  32076-3 0  9990", "line2": "2 57400  97.2870  37.3025 0007512  81.5703 278.6388 15.28074565133293"}}, "geometry": {"type": "Point", "coordinates": [-146.56099847060642, -31.02089850556341]}}]}